[{"OBJECT_NAME":"STARLINK-35669","OBJECT_ID":"2025-257S","EPOCH":"2026-03-09T16:10:08.929344","MEAN_MOTION":15.30201833,"ECCENTRICITY":9.924e-5,"INCLINATION":53.1608,"RA_OF_ASC_NODE":216.9084,"ARG_OF_PERICENTER":84.2037,"MEAN_ANOMALY":275.9077,"EPHEMERIS_TYPE":0,"CLASSIFICATION_TYPE":"U","NORAD_CAT_ID":66396,"ELEMENT_SET_NO":999,"REV_AT_EPOCH":1973,"BSTAR":0.00055291493,"MEAN_MOTION_DOT":0.00016053,"MEAN_MOTION_DDOT":0},{"OBJECT_NAME":"SL-3 R\/B","OBJECT_ID":"1982-079B","EPOCH":"2026-03-09T22:18:18.158976","MEAN_MOTION":15.24805533,"ECCENTRICITY":0.00250364,"INCLINATION":81.1481,"RA_OF_ASC_NODE":192.7939,"ARG_OF_PERICENTER":164.0597,"MEAN_ANOMALY":196.143,"EPHEMERIS_TYPE":0,"CLASSIFICATION_TYPE":"U","NORAD_CAT_ID":13403,"ELEMENT_SET_NO":999,"REV_AT_EPOCH":37773,"BSTAR":0.00032485557,"MEAN_MOTION_DOT":8.157e-5,"MEAN_MOTION_DDOT":0}]
